[{"OBJECT_NAME":"STARLINK-36152","OBJECT_ID":"2025-288K","EPOCH":"2026-03-08T21:32:42.262368","MEAN_MOTION":15.27599844,"ECCENTRICITY":0.00013432,"INCLINATION":42.9993,"RA_OF_ASC_NODE":28.1486,"ARG_OF_PERICENTER":248.4534,"MEAN_ANOMALY":111.6175,"EPHEMERIS_TYPE":0,"CLASSIFICATION_TYPE":"U","NORAD_CAT_ID":66968,"ELEMENT_SET_NO":999,"REV_AT_EPOCH":1516,"BSTAR":0.0017156292,"MEAN_MOTION_DOT":0.0004728,"MEAN_MOTION_DDOT":0},{"OBJECT_NAME":"CZ-6A DEB","OBJECT_ID":"2024-140UQ","EPOCH":"2026-03-09T14:36:35.114400","MEAN_MOTION":15.29987293,"ECCENTRICITY":0.0094347,"INCLINATION":89.0483,"RA_OF_ASC_NODE":279.5661,"ARG_OF_PERICENTER":66.0307,"MEAN_ANOMALY":295.0787,"EPHEMERIS_TYPE":0,"CLASSIFICATION_TYPE":"U","NORAD_CAT_ID":61327,"ELEMENT_SET_NO":999,"REV_AT_EPOCH":8299,"BSTAR":0.0015211,"MEAN_MOTION_DOT":0.00050856,"MEAN_MOTION_DDOT":0}]
